{
  "type": "FeatureCollection",
  "features": [
    {
      "type": "Feature",
      "properties": {
        "name": "Purwokerto Barat",
        "puskesmasCode": "purwokerto_barat"
      },
      "geometry": {
        "type": "Polygon",
        "coordinates": [
          [
            [
              109.2350034618952,
              -7.42
            ],
            [
              109.23080598909198,
              -7.399194010908019
            ],
            [
              109.21,
              -7.38966857354827
            ],
            [
              109.18883691704804,
              -7.398836917048037
            ],
            [
              109.17445427600035,
              -7.42
            ],
            [
              109.19005439861868,
              -7.439945601381305
            ],
            [
              109.21,
              -7.450011314181798
            ],
            [
              109.23451754019145,
              -7.444517540191448
            ],
            [
              109.2350034618952,
              -7.42
            ]
          ]
        ]
      }
    },
    {
      "type": "Feature",
      "properties": {
        "name": "Patikraja",
        "puskesmasCode": "patikraja"
      },
      "geometry": {
        "type": "Polygon",
        "coordinates": [
          [
            [
              109.25945176527318,
              -7.48
            ],
            [
              109.24683949357122,
              -7.45316050642878
            ],
            [
              109.22,
              -7.44776405164032
            ],
            [
              109.19858803712413,
              -7.458588037124124
            ],
            [
              109.19186710910617,
              -7.48
            ],
            [
              109.19342641865045,
              -7.506573581349547
            ],
            [
              109.22,
              -7.509269073986361
            ],
            [
              109.24421879728797,
              -7.504218797287966
            ],
            [
              109.25945176527318,
              -7.48
            ]
          ]
        ]
      }
    },
    {
      "type": "Feature",
      "properties": {
        "name": "Sokaraja 1",
        "puskesmasCode": "sokaraja_1"
      },
      "geometry": {
        "type": "Polygon",
        "coordinates": [
          [
            [
              109.30344440250342,
              -7.46
            ],
            [
              109.29449105770912,
              -7.445508942290876
            ],
            [
              109.28,
              -7.435240760830442
            ],
            [
              109.2638540259772,
              -7.4438540259772
            ],
            [
              109.25024821545477,
              -7.46
            ],
            [
              109.2647152636541,
              -7.4752847363459
            ],
            [
              109.28,
              -7.485659681857137
            ],
            [
              109.30008506584915,
              -7.480085065849142
            ],
            [
              109.30344440250342,
              -7.46
            ]
          ]
        ]
      }
    },
    {
      "type": "Feature",
      "properties": {
        "name": "Kembaran 1",
        "puskesmasCode": "kembaran_1"
      },
      "geometry": {
        "type": "Polygon",
        "coordinates": [
          [
            [
              109.31017467370134,
              -7.41
            ],
            [
              109.30125913861387,
              -7.388740861386125
            ],
            [
              109.28,
              -7.381549310646045
            ],
            [
              109.2571016359912,
              -7.387101635991206
            ],
            [
              109.24869987897797,
              -7.41
            ],
            [
              109.2567292765101,
              -7.4332707234899
            ],
            [
              109.28,
              -7.443477870849628
            ],
            [
              109.29760244927678,
              -7.427602449276776
            ],
            [
              109.31017467370134,
              -7.41
            ]
          ]
        ]
      }
    }
  ]
}